Manufacturer,Location,Address,City,Registration Link,Phone
Pfizer_BioNTech,The Little Clinic-Fry's,"9039 W Olive Ave, Peoria, AZ 85345",Peoria,Check appointments,1-866-211-5320
Pfizer; J_J,Mountain Park Health Center - Baseline Clinic,"635 E Baseline Rd, Phoenix, AZ 85042",Phoenix,Check appointments,602-243-7277
"Moderna,​​​​Pfizer_BioNTech",CVS/Pharmacy #00193,"4990 S Arizona Ave, Chandler, AZ 85248",Chandler,Check appointments,1-888-300-4419
"Moderna,​​​​Pfizer_BioNTech",CVS/Pharmacy #03500,"1625 N 44th St, Phoenix, AZ 85008",Phoenix,Check appointments,888-300-4419
"Moderna,​​​​Pfizer_BioNTech",CVS/Pharmacy #03749,"2840 N Dysart Rd, Goodyear, AZ 85395",Goodyear,Check appointments,888-300-4419
"Moderna,​​​​Pfizer_BioNTech",CVS/Pharmacy #05477,"1026 E Dr Martin Luther King Jr Blvd, Phoenix, AZ 85040",Phoenix,Check appointments,1-888-300-4419
"Moderna,​​​​Pfizer_BioNTech",CVS/Pharmacy #05477,"15474 W Greenway Rd, Surprise, AZ 85374",Surprise,Check appointments,888-300-4419
"Moderna,​​​​Pfizer_BioNTech",CVS/Pharmacy #05849,"990 E Pecos Rd, Chandler, AZ 85225",Chandler,Check appointments,888-300-4419
"Moderna,​​​​Pfizer_BioNTech",CVS/Pharmacy #05892,"5050 W Baseline Rd, Laveen, AZ 85339",Laveen,Check appointments,888-300-4419
"Moderna,​​​​Pfizer_BioNTech",CVS/Pharmacy #09213,"305 E Brown Rd, Mesa, AZ 85201",Mesa,Check appointments,888-300-4419
"Moderna,​​​​Pfizer_BioNTech",CVS/Pharmacy #09225,"2406 E Thomas Rd, Phoenix, AZ 85016",Phoenix,Check appointments,888-300-4419
"Moderna,​​​​Pfizer_BioNTech",CVS/Pharmacy #09314,"3440 W Glendale Ave, Phoenix, AZ 85051",Phoenix,Check appointments,888-300-4419
"Moderna,​​​​Pfizer_BioNTech",Peoria Community Center,"8335 W Jefferson St, Peoria, AZ 85345",Peoria,Check appointments,
"Moderna,​​​​Pfizer_BioNTech",Safeway #1511,"14175 W Indian School Rd, Goodyear, AZ 85395",Goodyear,Check appointments,
Moderna,1st Care Medical Clinic,"1635 W Glendale Ave, Phoenix, AZ 85021",Phoenix,,602-544-2273
Moderna,A New Leaf - La Mesita Family Care,"2254 W Main St, Mesa, AZ 85201",Mesa,Check appointments,480-733-3033
Moderna,Adelante Healthcare Peoria,"15525 N 83rd Ave, Peoria, AZ 85382",Peoria,Check appointments,
Moderna,Albertsons #1971,"8950 W Bell Rd, Peoria, AZ 85382",Peoria,Check appointments,
Moderna,Albertsons # 0991,"8240 W Deer Valley Rd, Peoria, AZ 85382",Peoria,Check appointments,
Moderna,Albertsons #0958,"325 S Power Rd, Mesa, AZ 85206",Mesa,Check appointments,
Moderna,Albertsons #3926,"12970 W Indian School Road, Litchfield Park, AZ 85340",Litchfield Park,Check appointments,623-535-7991
Moderna,Albertsons #3941,"5036 W Cactus Rd, Glendale, AZ 85304",Glendale,Check appointments,
Moderna,Albertsons #977,"14551 W Grand Avenue, Surprise, AZ 85375",Surprise,Check appointments,623-546-8038
Moderna,Ali Askari MD,"1331 N 7th St, Phoenix, AZ 85006",Phoenix,,602-744-1945
Moderna,American Family Medicine-Tolleson,"9155 W Van Buren St, Tolleson, AZ 85353",Tolleson,Walk-In,
Moderna,Arcpoint Labs of Scottsdale North,"15455 N Greenway Hayden Loop, Scottsdale, AZ 85260",Scottsdale,Check appointments,602-704-0120
Moderna,Arizona Medical Clinic,"1847 W Heatherbrae Dr, Phoenix, AZ 85015",Phoenix,Check appointments,
Moderna,ARIZONA MEDICAL CLINIC,"5130 E Thomas Rd, Phoenix, AZ 85018",Phoenix,,602-207-8400
Moderna,Bethesda Pediatrics,"2175 N Alma School Rd, Chandler, AZ 85224",Chandler,,480-222-6770
Moderna,Clinica Esperanza Hope Primary Care,"3130 E Baseline Rd, Mesa, AZ 85204",Mesa,,480-497-5933
Moderna,Clinica La Familia,"15235 N Dysart Rd, El Mirage, AZ 85335",El Mirage,Walk-In,
Moderna,Clinica La Familia,"7734 N 59th Ave, Glendale, AZ 85301",Glendale,Check appointments,
Moderna,Clinica La Familia,"616 E Southern Ave, Mesa, AZ 85204",Mesa,Walk-In,
Moderna,Clinica La Familia,"13402 N 32nd St, Phoenix, AZ 85032",Phoenix,Walk-In,
Moderna,Clinica La Familia,"13402 N 32nd St, Phoenix, AZ 85006",Phoenix,Check appointments,602-569-3999
Moderna,Clinica La Familia,"1533 E Willetta St., Phoenix, AZ 85006",Phoenix,Check appointments,
Moderna,Clinica La Familia,"1315 W Southern Ave, Tempe, AZ 85282",Tempe,Walk-In,
Moderna,Clínica Médica Del Sol- Phoenix,"8022 N 27th Ave, Phoenix, AZ 85051",Phoenix,,602-513-3616
Moderna,Commerce Medical Group LLC,"49 W Southern Ave, Tempe, AZ 85282",Tempe,,480-674-8200
Moderna,Costco Pharmacy - Paradise Valley,"4570 E Cactus Rd, Phoenix, AZ 85032",Phoenix,Check appointments,
Moderna,Daisy Family Health,"4150 W Peoria Ave, Phoenix, AZ 85029",Phoenix,Check appointments,602-314-6960
Moderna,"David C. Seeley, MD","5422 W Thunderbird Rd, Glendale, AZ 85306",Glendale,,602-439-8909
Moderna,Family Pharmacy,"10503 W Thunderbird Blvd, Sun City, AZ 85351",Sun City,,623-974-3555
Moderna,Focused Family Services Community Health Center,"1301 E McDowell Rd, Phoenix, AZ 85006",Phoenix,,602-253-6259
Moderna,Fry's Pharmacy,"11425 W Buckeye Rd, Avondale, AZ 85323",Avondale,Check appointments,1-866-211-5320
Moderna,Fry's Pharmacy,"2858 N Pinal Ave, Casa Grande, AZ 85122",Casa Grande,Check appointments,1-866-211-5320
Moderna,Fry's Pharmacy,"29440 N Cave Creek Rd, Cave Creek, AZ 85331",Cave Creek,Check appointments,1-866-211-5320
Moderna,Fry's Pharmacy,"4815 E Carefree Hwy, Cave Creek, AZ 85331",Cave Creek,Check appointments,1-866-211-5320
Moderna,Fry's Pharmacy,"2010 S Alma School Rd, Chandler, AZ 85286",Chandler,Check appointments,1-866-211-5320
Moderna,Fry's Pharmacy,"4003 S Arizona Ave, Chandler, AZ 85248",Chandler,Check appointments,1-866-211-5320
Moderna,Fry's Pharmacy,"985 E Riggs Rd, Chandler, AZ 85249",Chandler,Check appointments,1-866-211-5320
Moderna,Fry's Pharmacy,"14845 E Shea Blvd, Fountain Hills, AZ 85268",Fountain Hills,Check appointments,1-866-211-5320
Moderna,Fry's Pharmacy,"1845 E Baseline Rd, Gilbert, AZ 85233",Gilbert,Check appointments,1-866-211-5320
Moderna,Fry's Pharmacy,"855 W Warner Rd, Gilbert, AZ 85233",Gilbert,Check appointments,1-866-211-5320
Moderna,Fry's Pharmacy,"20220 N 59th Ave, Glendale, AZ 85308",Glendale,Check appointments,1-866-211-5320
Moderna,Fry's Pharmacy,"4315 W Bell Rd, Glendale, AZ 85308",Glendale,Check appointments,1-866-211-5320
Moderna,Fry's Pharmacy,"4329 W Northern Ave, Glendale, AZ 85301",Glendale,Check appointments,1-866-211-5320
Moderna,Fry's Pharmacy,"5771 W Thunderbird Rd, Glendale, AZ 85306",Glendale,Check appointments,1-866-211-5320
Moderna,Fry's Pharmacy,"6611 W Bell Rd, Glendale, AZ 85308",Glendale,Check appointments,1-866-211-5320
Moderna,Fry's Pharmacy,"6625 W Happy Valley Rd, Glendale, AZ 85310",Glendale,Check appointments,1-866-211-5320
Moderna,Fry's Pharmacy,"16380 W Yuma Rd, Goodyear, AZ 85338",Goodyear,Check appointments,1-866-211-5320
Moderna,Fry's Pharmacy,"5140 W Baseline Rd, Laveen, AZ 85339",Laveen,Check appointments,1-866-211-5320
Moderna,Fry's Pharmacy,"20797 N John Wayne Pkwy, Maricopa, AZ 85139",Maricopa,Check appointments,1-866-211-5320
Moderna,Fry's Pharmacy,"4440 E Main St, Mesa, AZ 85205",Mesa,Check appointments,1-866-211-5320
Moderna,Fry's Pharmacy,"25401 N Lake Pleasant Pkwy, Peoria, AZ 85383",Peoria,Check appointments,1-866-211-5320
Moderna,Fry's Pharmacy,"7455 W Cactus Rd, Peoria, AZ 85381",Peoria,Check appointments,1-866-211-5320
Moderna,Fry's Pharmacy,"8375 W Deer Valley Rd, Peoria, AZ 85382",Peoria,Check appointments,1-866-211-5320
Moderna,Fry's Pharmacy,"1815 W Glendale Ave, Phoenix, AZ 85021",Phoenix,Check appointments,1-866-211-5320
Moderna,Fry's Pharmacy,"2256 E Baseline Rd, Phoenix, AZ 85042",Phoenix,Check appointments,1-866-211-5320
Moderna,Fry's Pharmacy,"2800 W Dove Valley Rd, Phoenix, AZ 85085",Phoenix,Check appointments,1-866-211-5320
Moderna,Fry's Pharmacy,"3036 E Thomas Rd, Phoenix, AZ 85016",Phoenix,Check appointments,1-866-211-5320
Moderna,Fry's Pharmacy,"3616 E Ray Rd, Phoenix, AZ 85044",Phoenix,Check appointments,1-866-211-5320
Moderna,Fry's Pharmacy,"4228 W McDowell Rd, Phoenix, AZ 85009",Phoenix,Check appointments,1-866-211-5320
Moderna,Fry's Pharmacy,"4505 E Thomas Rd, Phoenix, AZ 85018",Phoenix,Check appointments,1-866-211-5320
Moderna,Fry's Pharmacy,"4707 E Shea Blvd, Phoenix, AZ 85028",Phoenix,Check appointments,1-866-211-5320
Moderna,Fry's Pharmacy,"744 W Camelback Rd, Phoenix, AZ 85013",Phoenix,Check appointments,1-866-211-5320
Moderna,Fry's Pharmacy,"10450 N 90th St, Scottsdale, AZ 85258",Scottsdale,Check appointments,1-866-211-5320
Moderna,Fry's Pharmacy,"20427 N Hayden Rd, Scottsdale, AZ 85255",Scottsdale,Check appointments,1-866-211-5320
Moderna,Fry's Pharmacy,"4842 E Bell Rd, Scottsdale, AZ 85254",Scottsdale,Check appointments,1-866-211-5320
Moderna,Fry's Pharmacy,"6321 E Greenway Rd, Scottsdale, AZ 85254",Scottsdale,Check appointments,1-866-211-5320
Moderna,Fry's Pharmacy,"7772 E McDowell Rd, Scottsdale, AZ 85257",Scottsdale,Check appointments,1-866-211-5320
Moderna,Fry's Pharmacy,"8900 E Via Linda, Scottsdale, AZ 85258",Scottsdale,Check appointments,1-866-211-5320
Moderna,Fry's Pharmacy,"4351 E Highway 90, Sierra Vista, AZ 85635",Sierra Vista,Check appointments,1-866-211-5320
Moderna,Fry's Pharmacy,"10660 W Grand Ave, Sun City, AZ 85351",Sun City,Check appointments,1-866-211-5320
Moderna,Fry's Pharmacy,"19403 N R H Johnson Blvd, Sun City West, AZ 85375",Sun City West,Check appointments,1-866-211-5320
Moderna,Fry's Pharmacy,"13982 W Waddell Rd, Surprise, AZ 85379",Surprise,Check appointments,1-866-211-5320
Moderna,Fry's Pharmacy,"15215 N Cotton Ln, Surprise, AZ 85388",Surprise,Check appointments,1-866-211-5320
Moderna,Fry's Pharmacy,"15510 W Bell Rd, Surprise, AZ 85374",Surprise,Check appointments,1-866-211-5320
Moderna,Gateway Urgent Care,"920 E Williams Field Rd, Gilbert, AZ 85295",Gilbert,Check appointments,480-499-0201
Moderna,Gilbert Complete Medical Clinic,"201 W Guadalupe Rd, Gilbert, AZ 85233",Gilbert,,480-219-6631
Moderna,Glendale Pediatrics & Family Care,"6745 N 51st Dr, Glendale, AZ 85301",Glendale,Walk-In,
Moderna,Hand in Hand Pharmacy,"1944 W Chandler Blvd, Chandler, AZ 85224",Chandler,Check appointments,480-534-7537
Moderna,HeartFit For Duty,"5432 E Southern Ave, Mesa, AZ 85206",Mesa,,480-299-3505
Moderna,IACRF COMMUNITY CENTER,"2809 W Maryland Ave, Phoenix, AZ 85017",Phoenix,Check appointments,
Moderna,Immaculate Heart of Mary Family Health Center,"2175 N Alma School Rd Suite 109, Chandler, AZ 85224",Chandler,Check appointments,480-665-2450
Moderna,InfuseAble Care,"8763 E Bell Rd, Scottsdale, AZ 85260",Scottsdale,,480-927-3800
Moderna,Mountain Park Health Center - Maryvale Clinic,"6601 W Thomas Rd, Phoenix, AZ 85033",Phoenix,Check appointments,602-243-7277
Moderna,Mountain Park Health Center Baseline Clinic,"633 E Baseline Rd, Phoenix, AZ 85042",Phoenix,Check appointments,602-243-7277
Moderna,Mountain Park Health Center Tempe Clinic,"1824 E Broadway Rd, Phoenix, AZ 85040",Phoenix,Check appointments,602-243-7277
Moderna,MVP Kids Care Avondale,"13065 W McDowell Rd, Avondale, AZ 85392",Avondale,,602-846-7575
Moderna,MVP Kids Care- Laveen,"5030 W Baseline Rd, Laveen, AZ 85339",Laveen,,623-846-7575
Moderna,MVP Kids Care- Phoenix,"4700 N 51st Ave, Phoenix, AZ 85031",Phoenix,,623-846-7575
Moderna,MY DR NOW - Chandler,"3100 N Alma School Rd, Chandler, AZ 85224",Chandler,Check appointments,480-677-8282
Moderna,MY DR NOW - Gilbert,"428 S Gilbert Rd, Gilbert, AZ 85296",Gilbert,Check appointments,480-677-8282
Moderna,MY DR NOW - Phoenix,"2640 W Baseline Rd, Phoenix, AZ 85041",Phoenix,Check appointments,480-677-8282
Moderna,Nurse Practitioner Consultants,"4555 E Mayo Blvd, Phoenix, AZ 85050",Phoenix,,480-384-5816
Moderna,Old Town Health,"4700 E Thomas Rd, Phoenix, AZ 85018",Phoenix,Check appointments,602-675-0553
Moderna,One Life Medical Center,"21321 E Ocotillo Rd, Queen Creek, AZ 85142",Queen Creek,Check appointments,480-987-5525
Moderna,One Medical,"7150 E Camelback Rd, Scottsdale, AZ 85251",Scottsdale,Check appointments,602-218-4072
Moderna,OPTIMAL HEALTH MEDICAL CLINIC,"855 E Brown Rd, Mesa, AZ 85203",Mesa,Check appointments,
623-910-3171,,,,,
Moderna,Palmeira Home Health,"123 E Baseline Rd, Phoenix, AZ 85042",Phoenix,Walk-In,
Moderna,Paper Cranes Healthcare,"5980 S Cooper Rd, Chandler, AZ 85249",Chandler,Check appointments,480-704-3474
Moderna,Pebble Creek Medical Group,"700 N Estrella Pkwy, Goodyear, AZ 85338",Goodyear,Check appointments,623-322-2144
Moderna,Phoenix Pharmacy,"1701 E Thomas Rd, Phoenix, AZ 85016",Phoenix,Check appointments,602-237-6677
Moderna,Pleasant Pediatrics - Ahwatukee,"15721 S 46th St, Phoenix, AZ 85048",Phoenix,Check appointments,
Moderna,Pleasant Pediatrics - Happy Valley,"10184 W Happy Valley Pkwy, Peoria, AZ 85383",Peoria,Check appointments,
Moderna,Pleasant Pediatrics - Lake Pleasant,"9059 W Lake Pleasant Pkwy, Peoria, AZ 85382",Peoria,Check appointments,
Moderna,Pleasant Pediatrics - Parkwest,"9744 W Northern Ave, Peoria, AZ 85345",Peoria,Check appointments,
Moderna,Pleasant Pediatrics - Westgate,"9980 W Glendale Ave, Glendale, AZ 85307",Glendale,Check appointments,
Moderna,Providence General Medicine and Pediatrics,"8410 W Thomas Rd, Phoenix, AZ 85037",Phoenix,,623 846-7337
Moderna,Pueblo Family Physicians-Phoenix,"4350 N 19th Ave, Phoenix, AZ 85015",Phoenix,Check appointments,602-264-9191
Moderna,Redirect Health,"16390 N 59th Ave, Glendale, AZ 85306",Glendale,Check appointments,623-334-4000
Moderna,Regent Medical Urgent Care,"16872 N Cave Creek Rd, Phoenix, AZ 85032",Phoenix,Check appointments,602-494-7700
Moderna,Rightway Pharmacy,"14808 N Del Webb Blvd, Sun City, AZ 85351",Sun City,Check appointments,
Moderna,"Rightway Pharmacy, LLC","14808 N Del Webb Blvd, Sun City, AZ 85351",Sun City,Check appointments,623-266-0021
Moderna,Safeway #0236,"10926 W Bell Rd, Sun City, AZ 85351",Sun City,Check appointments,
Moderna,Safeway #0240,"3450 W Bell Rd, Phoenix, AZ 85053",Phoenix,Check appointments,
Moderna,Safeway #0413,"550 E Bell Rd, Phoenix, AZ 85022",Phoenix,Check appointments,
Moderna,Safeway #1201,"4005 E Chandler Blvd, Phoenix, AZ 85048",Phoenix,Check appointments,
Moderna,Safeway #1253,"23565 N Scottsdale Rd, Scottsdale, AZ 85255",Scottsdale,Check appointments,
Moderna,Safeway #1510,"20205 N 67th Ave, Glendale, AZ 85308",Glendale,Check appointments,
Moderna,Safeway #1584,"1999 W Wickenburg Way, Wickenburg, AZ 85390",Wickenburg,Check appointments,
Moderna,Safeway #1591,"6044 S 16th St, Phoenix, AZ 85042",Phoenix,Check appointments,
Moderna,Safeway #1654,"4811 N 83rd Ave, Phoenix, AZ 85033",Phoenix,Check appointments,
Moderna,Safeway #1662,"10641 W Olive Ave, Peoria, AZ 85345",Peoria,Check appointments,
Moderna,Safeway #1663,"20901 N. Pima Rd, Scottsdale, AZ 85255",Scottsdale,Check appointments,
Moderna,Safeway #1819,"18495 E. Queen Creek Rd, Queen Creek, AZ 85142",Queen Creek,Check appointments,
Moderna,Safeway #1841,"12320 N 83rd Ave, Peoria, AZ 85381",Peoria,Check appointments,
Moderna,Safeway #1849,"32551 N. Scottsdale Road, Scottsdale, AZ 82266",Scottsdale,Check appointments,
Moderna,Safeway #1979,"13440 N 7th St, Phoenix, AZ 85022",Phoenix,Check appointments,
Moderna,Safeway #1980,"1334 E Chandler Blvd, Phoenix, AZ 85048",Phoenix,Check appointments,
Moderna,Safeway #2042,"3132 E Camelback Rd, Phoenix, AZ 85016",Phoenix,Check appointments,
Moderna,Safeway #2054,"13503 Camino Del Sol, Sun City West, AZ 85375",Sun City West,Check appointments,623-584-0501
Moderna,Safeway #2079,"5045 W Baseline Rd, Laveen, AZ 85339",Laveen,Check appointments,
Moderna,Safeway #2618,"440 N Estrella Pkwy, Goodyear, AZ 85338",Goodyear,Check appointments,
Moderna,Safeway #2651,"340 E McDowell Rd, Phoenix, AZ 85004",Phoenix,Check appointments,
Moderna,Safeway #3151,"9890 S Estrella Pkwy, Goodyear, AZ 85338",Goodyear,Check appointments,
Moderna,Safeway #3334,"3655 W Anthem Way, Phoenix, AZ 85086",Phoenix,Check appointments,
Moderna,Safeway 1491,"7920 E Chaparral Rd, Scottsdale, AZ 85250",Scottsdale,Check appointments,
Moderna,Safeway 2922,"4166 S Signal Butte Rd, Mesa, AZ 85212",Mesa,Check appointments,
Moderna,Safeway Pharmacy,"4970 S Alma School Rd, Chandler, AZ 85248",Chandler,Check appointments,480-883-0260
Moderna,Salter Med,"3921 E Baseline Rd, Gilbert, AZ 85234",Gilbert,,480-508-1522
Moderna,Scottsdale Family Health,"3501 N Scottsdale Rd, Scottsdale, AZ 85251",Scottsdale,,480-941-4845
Moderna,SheDoc Integrative Family Practice,"12861 N. 8th Avenue, Phoenix, AZ 85029",Phoenix,Check appointments,
Moderna,Sobel Family Medicine,"4550 E Bell Rd, Phoenix, AZ 85032",Phoenix,,602-996-6668
Moderna,Sunset Clinic,"7609 E Pinnacle Peak Rd, Scottsdale, AZ 85255",Scottsdale,,480-267-9111
Moderna,Sunset Clinic,"7609 E Pinnacle Peak Rd, Scottsdale, AZ 85255",Scottsdale,,480-267-9111
Moderna,Terros Health - 27th Ave,"3858 N 27th Ave, Phoenix, AZ 85017",Phoenix,Check appointments,
Moderna,Terros Health - McDowell,"4909 E McDowell Rd, Phoenix, AZ 85008",Phoenix,Check appointments,
Moderna,Terros Health - Olive,"6153 W Olive Ave, Glendale, AZ 85302",Glendale,Check appointments,
Moderna,Terros Health - Stapley,"1111 S Stapley Dr, Mesa, AZ 85204",Mesa,Check appointments,
Moderna,The Core Institute Gilbert Clinic,"3591 S Mercy Rd, Gilbert, AZ 85297",Gilbert,Check appointments,866-974-2673
Moderna,The Core Institute North Phoenix,"18444 N 25th Ave, Phoenix, AZ 85023",Phoenix,Check appointments,866-974-2673
Moderna,The Core Institute West Phoenix,"9329 W Thomas Rd, Phoenix, AZ 85037",Phoenix,Check appointments,866-974-2673
Moderna,"The Wellness and Prevention Center, LLC","5700 W Olive Ave, Glendale, AZ 85302",Glendale,,623-387-3705
Moderna,Urgent Care of Arizona,"2315 W Bethany Home Rd, Phoenix, AZ 85015",Phoenix,Check appointments,602-249-2848
Moderna,"Urgently Ortho: Orthopedics, Pain Management, Sports Medicine and Wellness","13402 N Scottsdale Rd, Scottsdale, AZ 85254",Scottsdale,Check appointments,480-530-7575
Moderna,Valley Discount Pharmacy,"1245 E Southern Ave, Mesa, AZ 85204",Mesa,Check appointments,480-404-9160
Moderna,Village Medical at Walgreens,"20266 N. Lake Pleasant Rd, Peoria, AZ 85382",Peoria,Check appointments,888-698-6727
Moderna,Walgreens,"1925 W Chandler Blvd, Chandler, AZ 85224",Chandler,Check appointments,
Moderna,Walgreens,"1975 S Alma School Rd, Chandler, AZ 85286",Chandler,Check appointments,
Moderna,Walgreens,"1985 E Chandler Blvd, Chandler, AZ 85225",Chandler,Check appointments,
Moderna,Walgreens,"3005 E Riggs Rd, Chandler, AZ 85249",Chandler,Check appointments,
Moderna,Walgreens,"4949 W Chandler Blvd, Chandler, AZ 85226",Chandler,Check appointments,
Moderna,Walgreens,"5975 W Ray Rd, Chandler, AZ 85226",Chandler,Check appointments,
Moderna,Walgreens,"975 E Ocotillo Rd, Chandler, AZ 85249",Chandler,Check appointments,
Moderna,Walgreens,"16415 E Palisades Blvd, Fountain Hills, AZ 85268",Fountain Hills,Check appointments,
Moderna,Walgreens,"1585 E Guadalupe Rd, Gilbert, AZ 85234",Gilbert,Check appointments,
Moderna,Walgreens,"2345 E Baseline Rd, Gilbert, AZ 85234",Gilbert,Check appointments,
Moderna,Walgreens,"2363 S Lindsay Rd, Gilbert, AZ 85295",Gilbert,Check appointments,
Moderna,Walgreens,"2431 S Higley Rd, Gilbert, AZ 85295",Gilbert,Check appointments,
Moderna,Walgreens,"3230 E Chandler Heights Rd, Gilbert, AZ 85298",Gilbert,Check appointments,
Moderna,Walgreens,"4766 E Queen Creek Rd, Gilbert, AZ 85297",Gilbert,Check appointments,
Moderna,Walgreens,"754 N Higley Rd, Gilbert, AZ 85234",Gilbert,Check appointments,
Moderna,Walgreens,"76 W Guadalupe Rd, Gilbert, AZ 85233",Gilbert,Check appointments,
Moderna,Walgreens,"785 S Cooper Rd, Gilbert, AZ 85233",Gilbert,Check appointments,
Moderna,Walgreens,"805 S Val Vista Dr, Gilbert, AZ 85296",Gilbert,Check appointments,
Moderna,Walgreens,"5895 W Peoria Ave, Glendale, AZ 85302",Glendale,Check appointments,
Moderna,Walgreens,"1130 W Southern Ave, Mesa, AZ 85210",Mesa,Check appointments,
Moderna,Walgreens,"1135 N Mesa Dr, Mesa, AZ 85201",Mesa,Check appointments,
Moderna,Walgreens,"1142 W Guadalupe Rd, Mesa, AZ 85210",Mesa,Check appointments,
Moderna,Walgreens,"1159 E Southern Ave, Mesa, AZ 85204",Mesa,Check appointments,
Moderna,Walgreens,"1305 S Greenfield Rd, Mesa, AZ 85206",Mesa,Check appointments,
Moderna,Walgreens,"1935 N Power Rd, Mesa, AZ 85205",Mesa,Check appointments,
Moderna,Walgreens,"2024 W Main St, Mesa, AZ 85201",Mesa,Check appointments,
Moderna,Walgreens,"2737 E McKellips Rd, Mesa, AZ 85213",Mesa,Check appointments,
Moderna,Walgreens,"2811 E Broadway Rd, Mesa, AZ 85204",Mesa,Check appointments,
Moderna,Walgreens,"420 S Sossaman Rd, Mesa, AZ 85208",Mesa,Check appointments,
Moderna,Walgreens,"4420 E Brown Rd, Mesa, AZ 85205",Mesa,Check appointments,
Moderna,Walgreens,"6002 E Main St, Mesa, AZ 85205",Mesa,Check appointments,
Moderna,Walgreens,"7059 E Baseline Rd, Mesa, AZ 85209",Mesa,Check appointments,
Moderna,Walgreens,"6200 N Scottsdale Rd, Paradise Valley, AZ 85253",Paradise Valley,Check appointments,
Moderna,Walgreens,"7448 W Thunderbird Rd, Peoria, AZ 85381",Peoria,Check appointments,
Moderna,Walgreens,"8310 W Deer Valley Rd, Peoria, AZ 85382",Peoria,Check appointments,
Moderna,Walgreens,"9040 W Peoria Ave, Peoria, AZ 85345",Peoria,Check appointments,
Moderna,Walgreens,"9050 W Union Hills Dr, Peoria, AZ 85382",Peoria,Check appointments,
Moderna,Walgreens,"10865 N Tatum Blvd, Phoenix, AZ 85028",Phoenix,Check appointments,
Moderna,Walgreens,"1315 E Chandler Blvd, Phoenix, AZ 85048",Phoenix,Check appointments,
Moderna,Walgreens,"1840 W Southern Ave, Phoenix, AZ 85041",Phoenix,Check appointments,
Moderna,Walgreens,"204 E Bell Rd, Phoenix, AZ 85022",Phoenix,Check appointments,
Moderna,Walgreens,"2420 E Baseline Rd, Phoenix, AZ 85042",Phoenix,Check appointments,
Moderna,Walgreens,"3402 N Central Ave, Phoenix, AZ 85012",Phoenix,Check appointments,
Moderna,Walgreens,"3434 W Southern Ave, Phoenix, AZ 85041",Phoenix,Check appointments,
Moderna,Walgreens,"3605 E Thomas Rd, Phoenix, AZ 85018",Phoenix,Check appointments,
Moderna,Walgreens,"3945 E Southern Ave, Phoenix, AZ 85040",Phoenix,Check appointments,
Moderna,Walgreens,"3960 E Chandler Blvd, Phoenix, AZ 85048",Phoenix,Check appointments,
Moderna,Walgreens,"4111 N 24th St, Phoenix, AZ 85016",Phoenix,Check appointments,
Moderna,Walgreens,"4134 N 44th St, Phoenix, AZ 85018",Phoenix,Check appointments,
Moderna,Walgreens,"4875 E Elliot Rd, Phoenix, AZ 85044",Phoenix,Check appointments,
Moderna,Walgreens,"5101 W Indian School Rd, Phoenix, AZ 85031",Phoenix,Check appointments,
Moderna,Walgreens,"5625 E Thomas Rd, Phoenix, AZ 85018",Phoenix,Check appointments,
Moderna,Walgreens,"6838 N 7th St, Phoenix, AZ 85014",Phoenix,Check appointments,
Moderna,Walgreens,"705 E McDowell Rd, Phoenix, AZ 85006",Phoenix,Check appointments,
Moderna,Walgreens,"710 E Camelback Rd, Phoenix, AZ 85014",Phoenix,Check appointments,
Moderna,Walgreens,"7606 S 7th St, Phoenix, AZ 85042",Phoenix,Check appointments,
Moderna,Walgreens,"8030 N 19th Ave, Phoenix, AZ 85021",Phoenix,Check appointments,
Moderna,Walgreens,"8911 N 7th St, Phoenix, AZ 85020",Phoenix,Check appointments,
Moderna,Walgreens,"21212 E Ocotillo Rd, Queen Creek, AZ 85142",Queen Creek,Check appointments,
Moderna,Walgreens,"3111 W Hunt Hwy, Queen Creek, AZ 85142",Queen Creek,Check appointments,
Moderna,Walgreens,"10135 E Via Linda, Scottsdale, AZ 85258",Scottsdale,Check appointments,
Moderna,Walgreens,"11250 E Via Linda, Scottsdale, AZ 85259",Scottsdale,Check appointments,
Moderna,Walgreens,"15025 N Thompson Peak Pkwy, Scottsdale, AZ 85260",Scottsdale,Check appointments,
Moderna,Walgreens,"3420 N Scottsdale Rd, Scottsdale, AZ 85251",Scottsdale,Check appointments,
Moderna,Walgreens,"7011 E Shea Blvd, Scottsdale, AZ 85254",Scottsdale,Check appointments,
Moderna,Walgreens,"7337 N Via Paseo del Sur, Scottsdale, AZ 85258",Scottsdale,Check appointments,
Moderna,Walgreens,"7923 E McDowell Rd, Scottsdale, AZ 85257",Scottsdale,Check appointments,
Moderna,Walgreens,"8015 E Indian School Rd, Scottsdale, AZ 85251",Scottsdale,Check appointments,
Moderna,Walgreens,"8469 E McDonald Dr, Scottsdale, AZ 85250",Scottsdale,Check appointments,
Moderna,Walgreens,"10707 W Peoria Ave, Sun City, AZ 85351",Sun City,Check appointments,
Moderna,Walgreens,"15436 N 99th Ave, Sun City, AZ 85351",Sun City,Check appointments,
Moderna,Walgreens,"19003 N R H Johnson Blvd, Sun City West, AZ 85375",Sun City West,Check appointments,
Moderna,Walgreens,"14285 W Grand Ave, Surprise, AZ 85374",Surprise,Check appointments,
Moderna,Walgreens,"17088 W Bell Rd, Surprise, AZ 85374",Surprise,Check appointments,
Moderna,Walgreens,"1745 E Southern Ave, Tempe, AZ 85282",Tempe,Check appointments,
Moderna,Walgreens,"1825 E Warner Rd, Tempe, AZ 85284",Tempe,Check appointments,
Moderna,Walgreens,"2000 S Mill Ave, Tempe, AZ 85282",Tempe,Check appointments,
Moderna,Walgreens,"6404 S McClintock Dr, Tempe, AZ 85283",Tempe,Check appointments,
Moderna,Walgreens,"925 W Baseline Rd, Tempe, AZ 85283",Tempe,Check appointments,
Moderna,Walgreens #12739,"15450 N Tatum Blvd, Phoenix, AZ 85032",Phoenix,Check appointments,
Moderna,Walgreens #3003,"6690 W Union Hills Dr, Glendale, AZ 85308",Glendale,Check appointments,
Moderna,Walgreens #3132,"2415 E Union Hills Dr, Phoenix, AZ 85050",Phoenix,Check appointments,
Moderna,Walgreens #3766,"34406 N Scottsdale Rd, Scottsdale, AZ 85266",Scottsdale,Check appointments,
Moderna,Walgreens #3912,"29660 N Tatum Blvd, Cave Creek, AZ 85331",Cave Creek,Check appointments,
Moderna,Walgreens #5353,"20266 N Lake Pleasant Rd, Peoria, AZ 85382",Peoria,Check appointments,
Moderna,Walgreens #5453,"6565 E Greenway Pkwy, Scottsdale, AZ 85254",Scottsdale,Check appointments,
Moderna,Walgreens #5937,"4315 W McDowell Rd, Phoenix, AZ 85035",Phoenix,Check appointments,
Moderna,Walgreens #7110,"6640 W Happy Valley Rd, Glendale, AZ 85310",Glendale,Check appointments,
Moderna,Walgreens #7933,"15514 W Waddell Rd, Surprise, AZ 85379",Surprise,Check appointments,
Moderna,Wee Care Pediatrics,"2017 E Adobe St, Mesa, AZ 85213",Mesa,Check appointments,480-244-5373
Moderna,"Westside Internal Medicine, PC","13921 W Grand Ave, Surprise, AZ 85374",Surprise,,623-214-2200
Moderna,"Westside Internal Medicine, PC","W Grand Ave, Surprise, AZ 85374",Surprise,,623-214-2200
Moderna,Westview Family Medicine,"8811 N 51ST AVE, Glendale, AZ 85302",Glendale,,(623) 536-6788
Moderna,"Westview Family Medicine, PC","13065 W McDowell Rd, Avondale, AZ 85395",Avondale,Walk-In,
Moderna,"Westview Family Medicine, PC","13065 W McDowell Rd, Avondale, AZ 85392",Avondale,Check appointments,623-539-6788
Moderna,"Westview Family Medicine, PC","13065 W McDowell Rd, Avondale, AZ 85392",Avondale,Check appointments,623-536-6788
Moderna,Wickenburg Community Hospital,"522 W Rose Ln, Wickenburg, AZ 85390",Wickenburg,Check appointments,928-615-3570
"J_J,Moderna,​​​​Pfizer_BioNTech",Albertsons #2985,"18411 N Cave Creek Rd, Phoenix, AZ 85032",Phoenix,Check appointments,
"J_J,Moderna,​​​​Pfizer_BioNTech",Safeway Pharmacy #2054,"13503 W Camino Del Sol, Sun City West, AZ 85375",Sun City West,Check appointments,623-584-0501
"J_J,Moderna",Adelante Healthcare Surprise,"15351 W Bell Rd, Surprise, AZ 85374",Surprise,,877-809-5092
"J_J,Moderna",Bethany Home Discount Pharmacy,"6601 W Bethany Home Rd, Glendale, AZ 85301",Glendale,,623-440-7717
"J_J,Moderna",Costco Pharmacy - Surprise,"17399 W Carmen Dr, Surprise, AZ 85388",Surprise,Check appointments,
"J_J,Moderna",Fry's Pharmacy,"1950 W Ray Rd, Chandler, AZ 85224",Chandler,Check appointments,1-866-211-5320
"J_J,Moderna",Fry's Pharmacy,"1455 N Higley Rd, Gilbert, AZ 85234",Gilbert,Check appointments,1-866-211-5320
"J_J,Moderna",Fry's Pharmacy,"2021 E Williams Field Rd, Gilbert, AZ 85295",Gilbert,Check appointments,1-866-211-5320
"J_J,Moderna",Fry's Pharmacy,"3261 E Pecos Rd, Gilbert, AZ 85295",Gilbert,Check appointments,1-866-211-5320
"J_J,Moderna",Fry's Pharmacy,"714 S Val Vista Dr, Gilbert, AZ 85296",Gilbert,Check appointments,1-866-211-5320
"J_J,Moderna",Fry's Pharmacy,"87 E Williams Field Rd, Gilbert, AZ 85295",Gilbert,Check appointments,1-866-211-5320
"J_J,Moderna",Fry's Pharmacy,"1245 W Main St, Mesa, AZ 85201",Mesa,Check appointments,1-866-211-5320
"J_J,Moderna",Fry's Pharmacy,"1929 S Power Rd, Mesa, AZ 85206",Mesa,Check appointments,1-866-211-5320
"J_J,Moderna",Fry's Pharmacy,"2727 E Broadway Rd, Mesa, AZ 85204",Mesa,Check appointments,1-866-211-5320
"J_J,Moderna",Fry's Pharmacy,"435 S Ellsworth Rd, Mesa, AZ 85208",Mesa,Check appointments,1-866-211-5320
"J_J,Moderna",Fry's Pharmacy,"554 W Baseline Rd, Mesa, AZ 85210",Mesa,Check appointments,1-866-211-5320
"J_J,Moderna",Fry's Pharmacy,"5941 E McKellips Rd, Mesa, AZ 85215",Mesa,Check appointments,1-866-211-5320
"J_J,Moderna",Fry's Pharmacy,"9245 W Union Hills Dr, Peoria, AZ 85382",Peoria,Check appointments,1-866-211-5320
"J_J,Moderna",Fry's Pharmacy,"1919 E Camelback Rd, Phoenix, AZ 85016",Phoenix,Check appointments,1-866-211-5320
"J_J,Moderna",Fry's Pharmacy,"2626 S 83rd Ave, Phoenix, AZ 85043",Phoenix,Check appointments,1-866-211-5320
"J_J,Moderna",Fry's Pharmacy,"3242 E Bell Rd, Phoenix, AZ 85032",Phoenix,Check appointments,1-866-211-5320
"J_J,Moderna",Fry's Pharmacy,"39508 N Daisy Mountain Dr, Phoenix, AZ 85086",Phoenix,Check appointments,1-866-211-5320
"J_J,Moderna",Fry's Pharmacy,"4025 E Thunderbird Rd, Phoenix, AZ 85032",Phoenix,Check appointments,1-866-211-5320
"J_J,Moderna",Fry's Pharmacy,"7628 E Indian School Rd, Scottsdale, AZ 85251",Scottsdale,Check appointments,1-866-211-5320
"J_J,Moderna",Metier Pharmacy,"4214 E Indian School Rd, Phoenix, AZ 85018",Phoenix,,602-899-6960
"J_J,Moderna",Noah Desert Mission Community Health Center,"9201 N 5th St, Phoenix, AZ 85020",Phoenix,,480-882-4545
"J_J,​​​​Moderna, Pfizer_BioNTech",Costco Pharmacy - Avondale,"10000 W McDowell Rd, Avondale, AZ 85392",Avondale,Check appointments,
"J_J,​​​​Moderna, Pfizer_BioNTech",Costco Pharmacy - Cave Creek,"2450 E Beardsley Rd, Phoenix, AZ 85050",Phoenix,Check appointments,
"J_J,​​​​Moderna, Pfizer_BioNTech",Costco Pharmacy - Chandler,"595 S Galleria Way, Chandler, AZ 85226",Chandler,Check appointments,
"J_J,​​​​Moderna, Pfizer_BioNTech",Costco Pharmacy - Gilbert,"1415 N Arizona Ave, Gilbert, AZ 85233",Gilbert,Check appointments,
"J_J,​​​​Moderna, Pfizer_BioNTech",Costco Pharmacy - Mesa,"1444 S Sossaman Rd, Mesa, AZ 85209",Mesa,Check appointments,
"J_J,​​​​Moderna, Pfizer_BioNTech",Costco Pharmacy - North Phoenix,"19001 N 27th Ave, Phoenix, AZ 85027",Phoenix,Check appointments,
"J_J,​​​​Moderna, Pfizer_BioNTech",Costco Pharmacy - Scottsdale,"15255 N Hayden Rd, Scottsdale, AZ 85260",Scottsdale,Check appointments,
"J_J,​​​​Moderna, Pfizer_BioNTech",Costco Pharmacy - SE Gilbert,"2887 S Market St, Gilbert, AZ 85295",Gilbert,Check appointments,
"J_J,​​​​Moderna, Pfizer_BioNTech",Costco Pharmacy - Tempe,"1445 W Elliot Rd, Tempe, AZ 85284",Tempe,Check appointments,
"J_J,​​​​Moderna, Pfizer_BioNTech",Costco Pharmacy - Thomas Road,"4502 E Oak St, Phoenix, AZ 85008",Phoenix,Check appointments,
"J_J,​​​​Moderna, Pfizer_BioNTech",Costco Pharmacy-Glendale,"17550 N 79th Ave, Glendale, AZ 85308",Glendale,Check appointments,
"J_J,​​​ Pfizer_BioNTech",Mountain Park Health Center - Gateway Clinic,"3830 E Van Buren St, Phoenix, AZ 85008",Phoenix,Check appointments,602-243-7277
"J_J,​​​ Pfizer_BioNTech",Mountain Park Health Center - Goodyear Clinic,"140 N Litchfield Rd, Goodyear, AZ 85338",Goodyear,Check appointments,602-243-7277
"J_J,​​​ Pfizer_BioNTech",Mountain Park Health Center - Tempe Clinic,"1821 S McClintock Dr, Tempe, AZ 85281",Tempe,Check appointments,602-243-7277
J_J,911 Drug Testing,"7802 N 43rd Ave, Glendale, AZ 85301",Glendale,,602-962-6355
J_J,Fry's Pharmacy,"100 E Jefferson St, Phoenix, AZ 85004",Phoenix,Check appointments,1-866-211-5320
J_J,The Little Clinic-Fry's,"1575 N Dysart Rd, Avondale, AZ 85392",Avondale,Check appointments,1-866-211-5320
J_J,The Little Clinic-Fry's,"1300 S Watson Rd, Buckeye, AZ 85326",Buckeye,Check appointments,1-866-211-5320
J_J,The Little Clinic-Fry's,"6486 S Higley Rd, Gilbert, AZ 85298",Gilbert,Check appointments,1-866-211-5320
J_J,The Little Clinic-Fry's,"6451 W Bell Rd, Glendale, AZ 85308",Glendale,Check appointments,1-866-211-5320
J_J,The Little Clinic-Fry's,"13726 W Camelback Rd, Litchfield Park, AZ 85340",Litchfield Park,Check appointments,1-866-211-5320
J_J,The Little Clinic-Fry's,"1935 N Stapley Dr, Mesa, AZ 85203",Mesa,Check appointments,1-866-211-5320
J_J,The Little Clinic-Fry's,"2724 S Signal Butte Rd, Mesa, AZ 85209",Mesa,Check appointments,1-866-211-5320
J_J,The Little Clinic-Fry's,"1311 E Bell Rd, Phoenix, AZ 85022",Phoenix,Check appointments,1-866-211-5320
J_J,The Little Clinic-Fry's,"2727 W Bell Rd, Phoenix, AZ 85053",Phoenix,Check appointments,1-866-211-5320
J_J,The Little Clinic-Fry's,"3255 S Rural Rd, Tempe, AZ 85282",Tempe,Check appointments,1-866-211-5320
J_J,The Little Clinic-Fry's,"9900 S Rural Rd, Tempe, AZ 85284",Tempe,Check appointments,1-866-211-5320
"​​​​Pfizer_BioNTech,Moderna",Safeway #129,"13779 N Fountain Hills Blvd, Fountain Hills, AZ 85268",Fountain Hills,Check appointments,
"​​​​Pfizer_BioNTech,Moderna",Safeway #2044,"260 W Continental Rd, Green Valley, AZ 85622",Green Valley,Check appointments,
"​​​​Pfizer_BioNTech,Moderna",Safeway #2699,"28451 N Vistancia Blvd, Peoria, AZ 85383",Peoria,Check appointments,
"​​​​Pfizer_BioNTech, J_J",Mountain Park Health Center - Christown Clinic,"5517 N 17th Ave, Phoenix, AZ 85015",Phoenix,Check appointments,602-243-7277
​​​​Pfizer_BioNTech,Albertsons #2952,"8035 N 19th Ave, Phoenix, AZ 85021",Phoenix,Check appointments,
​​​​Pfizer_BioNTech,Banner Health @ AZ State Fairgrounds,"1710 W McDowell Rd, Phoenix, AZ 85007",Phoenix,Check appointments,
​​​​Pfizer_BioNTech,Banner Health @ Sun City West,"14512 W Shumway Dr, Sun City West, AZ 85375",Sun City West,Check appointments,
​​​​Pfizer_BioNTech,CVS Pharmacy #5029,"9230 E Broadway Rd, Mesa, AZ 85208",Mesa,Check appointments,480-986-3004
​​​​Pfizer_BioNTech,CVS Pharmacy #5477,"4890 N Litchfield Rd, Litchfield Park, AZ 85340",Litchfield Park,Check appointments,623-547-4799
​​​​Pfizer_BioNTech,CVS Pharmacy #5892,"5050 W Baseline Rd, Laveen, AZ 85339",Laveen,Check appointments,602-237-8681
​​​​Pfizer_BioNTech,CVS Pharmacy #9347,"1525 N Central Ave, Phoenix, AZ 85004",Phoenix,Check appointments,602-256-2124
​​​​Pfizer_BioNTech,CVS/Pharmacy #04795,"6015 E Brown Rd, Mesa, AZ 85205",Mesa,Check appointments,1-888-300-4419
​​​​Pfizer_BioNTech,CVS/Pharmacy #07263,"10707 W Camelback Rd, Phoenix, AZ 85037",Phoenix,Check appointments,888-300-4419
​​​​Pfizer_BioNTech,Fry's Pharmacy,"10675 W Indian School Rd, Avondale, AZ 85392",Avondale,Check appointments,1-866-211-5320
​​​​Pfizer_BioNTech,Fry's Pharmacy,"981 W Elliot Rd, Chandler, AZ 85225",Chandler,Check appointments,1-866-211-5320
​​​​Pfizer_BioNTech,Fry's Pharmacy,"4353 W Bethany Home Rd, Glendale, AZ 85301",Glendale,Check appointments,1-866-211-5320
​​​​Pfizer_BioNTech,Fry's Pharmacy,"5116 W Olive Ave, Glendale, AZ 85302",Glendale,Check appointments,1-866-211-5320
​​​​Pfizer_BioNTech,Fry's Pharmacy,"6710 W Bethany Home Rd, Glendale, AZ 85303",Glendale,Check appointments,1-866-211-5320
​​​​Pfizer_BioNTech,Fry's Pharmacy,"18420 N 19th Ave, Phoenix, AZ 85023",Phoenix,Check appointments,1-866-211-5320
​​​​Pfizer_BioNTech,Fry's Pharmacy,"3421 W Thunderbird Rd, Phoenix, AZ 85053",Phoenix,Check appointments,1-866-211-5320
​​​​Pfizer_BioNTech,Fry's Pharmacy,"3511 W Peoria Ave, Phoenix, AZ 85029",Phoenix,Check appointments,1-866-211-5320
​​​​Pfizer_BioNTech,Fry's Pharmacy,"3949 E Chandler Blvd, Phoenix, AZ 85048",Phoenix,Check appointments,1-866-211-5320
​​​​Pfizer_BioNTech,Fry's Pharmacy,"4204 W Cactus Rd, Phoenix, AZ 85029",Phoenix,Check appointments,1-866-211-5320
​​​​Pfizer_BioNTech,Fry's Pharmacy,"520 E Baseline Rd, Phoenix, AZ 85042",Phoenix,Check appointments,1-866-211-5320
​​​​Pfizer_BioNTech,Fry's Pharmacy,"6601 W Indian School Rd, Phoenix, AZ 85033",Phoenix,Check appointments,1-866-211-5320
​​​​Pfizer_BioNTech,Fry's Pharmacy,"8326 W Indian School Rd, Phoenix, AZ 85037",Phoenix,Check appointments,1-866-211-5320
​​​​Pfizer_BioNTech,Fry's Pharmacy,"862 E Hatcher Rd, Phoenix, AZ 85020",Phoenix,Check appointments,1-866-211-5320
​​​​Pfizer_BioNTech,Fry's Pharmacy,"1835 E Guadalupe Rd, Tempe, AZ 85283",Tempe,Check appointments,1-866-211-5320
​​​​Pfizer_BioNTech,Fry's Pharmacy,"2700 W Baseline Rd, Tempe, AZ 85283",Tempe,Check appointments,1-866-211-5320
​​​​Pfizer_BioNTech,Fry's Pharmacy,"3232 S Mill Ave, Tempe, AZ 85282",Tempe,Check appointments,1-866-211-5320
​​​​Pfizer_BioNTech,Fry's Pharmacy,"5100 S McClintock Dr, Tempe, AZ 85282",Tempe,Check appointments,1-866-211-5320
​​​​Pfizer_BioNTech,NATIVE HEALTH,"4041 N Central Ave, Phoenix, AZ 85012",Phoenix,Check appointments,602-266-6505
​​​​Pfizer_BioNTech,NATIVE HEALTH Mesa,"777 W Southern Ave, Mesa, AZ 85210",Mesa,Check appointments,602- 266-6505
​​​​Pfizer_BioNTech,Safeway #0752,"4747 E Elliot Rd, Phoenix, AZ 85044",Phoenix,Check appointments,
​​​​Pfizer_BioNTech,Safeway #1515,"810 E Glendale Ave, Phoenix, AZ 85020",Phoenix,Check appointments,
​​​​Pfizer_BioNTech,Safeway #1997,"17049 W Bell Rd, Surprise, AZ 85388",Surprise,Check appointments,
​​​​Pfizer_BioNTech,Safeway #2821,"3800 W Happy Valley Rd, Glendale, AZ 85310",Glendale,Check appointments,
​​​​Pfizer_BioNTech,State of Arizona POD at ASU Desert Financial Arena,"600 E Veterans Wy, Tempe, AZ 85281",Tempe,Check appointments,602-542-1000
​​​​Pfizer_BioNTech,State of Arizona POD at Dexcom in Southeast Mesa,"8046 E Ray Rd, Mesa, AZ 85212",Mesa,Check appointments,1-844-542-8201
​​​​Pfizer_BioNTech,State of Arizona POD at Gila River Arena,"9400 W Maryland Ave, Glendale, AZ 85305",Glendale,Check appointments,1-844-542-8201
​​​​Pfizer_BioNTech,State of Arizona POD at WestWorld of Scottsdale,"16601 N Pima Rd, Scottsdale, AZ 85260",Scottsdale,Check appointments,
​​​​Pfizer_BioNTech,Walgreens # 2851,"7000 N 16th St, Phoenix, AZ 85020",Phoenix,Check appointments,
​​​​Pfizer_BioNTech,Walgreens # 4139,"3450 W Dunlap Ave, Phoenix, AZ 85051",Phoenix,Check appointments,
​​​​Pfizer_BioNTech,Walgreens #12386,"9800 S Estrella Pkwy, Goodyear, AZ 85338",Goodyear,Check appointments,
​​​​Pfizer_BioNTech,Walgreens #3593,"2610 W Thunderbird Rd, Phoenix, AZ 85023",Phoenix,Check appointments,
​​​​Pfizer_BioNTech,Walgreens #4228,"5125 W Northern Ave, Glendale, AZ 85301",Glendale,Check appointments,
​​​​Pfizer_BioNTech,Walgreens #4909,"2921 N 83rd Ave, Phoenix, AZ 85033",Phoenix,Check appointments,
​​​​Pfizer_BioNTech,Walgreens #5504,"4249 W Glendale Ave, Phoenix, AZ 85051",Phoenix,Check appointments,
​​​​Pfizer_BioNTech,Walgreens #6063,"1825 W Bethany Home Rd, Phoenix, AZ 85015",Phoenix,Check appointments,
​​​​Pfizer_BioNTech,Walgreens #9057,"18433 N 19th Ave, Phoenix, AZ 85023",Phoenix,Check appointments,